OBJECT_NAME,OBJECT_ID,EPOCH,MEAN_MOTION,ECCENTRICITY,INCLINATION,RA_OF_ASC_NODE,ARG_OF_PERICENTER,MEAN_ANOMALY,EPHEMERIS_TYPE,CLASSIFICATION_TYPE,NORAD_CAT_ID,ELEMENT_SET_NO,REV_AT_EPOCH,BSTAR,MEAN_MOTION_DOT,MEAN_MOTION_DDOT
COSMOS 2575,2024-026A,2024-08-12T15:33:25.750944,15.90181677,.0006789,96.7269,120.2639,62.9581,297.2386,0,U,58929,999,2927,.53476E-3,.160172E-2,.11041E-4
STARLINK-31317,2024-027A,2024-08-14T07:32:41.866944,15.28037219,.0001463,53.1600,89.0665,110.0600,250.0558,0,U,58931,999,2952,.22567E-2,.62719E-3,0
STARLINK-31378,2024-027B,2024-08-14T07:32:12.227424,15.28003954,.0000868,53.1579,89.0616,91.0365,269.0734,0,U,58932,999,2968,.23892E-3,.6269E-4,0
STARLINK-31350,2024-027C,2024-08-13T15:43:35.239872,15.28016007,.0002129,53.1586,92.0590,77.4088,282.7149,0,U,58933,999,2958,.18387E-3,.4744E-4,0
STARLINK-31337,2024-027D,2024-08-14T07:25:57.203040,15.27984071,.0001143,53.1577,89.0331,91.9384,268.1746,0,U,58934,999,2968,.48574E-3,.13112E-3,0
STARLINK-31362,2024-027E,2024-08-14T08:00:06.850368,15.30180682,.0001201,53.1586,88.4723,119.4714,240.6407,0,U,58935,999,2969,-.15868E-5,-.406E-5,0
STARLINK-31383,2024-027F,2024-08-14T07:58:34.928544,15.30169843,.0001104,53.1609,88.4642,93.5875,266.5252,0,U,58936,999,2969,-.15044E-3,-.4808E-4,0
STARLINK-31390,2024-027G,2024-08-14T07:52:30.260064,15.30164049,.0000886,53.1595,88.4388,82.9995,277.1106,0,U,58937,999,2969,-.23914E-3,-.7426E-4,0
STARLINK-31377,2024-027H,2024-08-14T07:57:03.799872,15.30174643,.0001336,53.1606,88.4579,103.2391,256.8759,0,U,58938,999,2969,.58583E-3,.17018E-3,0
STARLINK-31372,2024-027J,2024-08-14T07:47:57.628320,15.30159607,.0001133,53.1618,88.4157,92.3407,267.7723,0,U,58939,999,2969,-.20797E-3,-.6505E-4,0
STARLINK-31371,2024-027K,2024-08-14T07:46:24.469248,15.30200277,.0001046,53.1612,88.4076,79.1914,280.9204,0,U,58940,999,2969,.28751E-4,.493E-5,0
STARLINK-31345,2024-027L,2024-08-14T07:38:49.762464,15.30163027,.0001303,53.1590,88.3775,99.5180,260.5968,0,U,58941,999,2969,-.141E-3,-.4528E-4,0
STARLINK-31354,2024-027M,2024-08-14T07:43:22.998144,15.30186649,.0001264,53.1601,88.3963,85.9163,274.1982,0,U,58942,999,2969,-.33352E-4,-.1346E-4,0
STARLINK-31346,2024-027N,2024-08-14T07:34:17.036544,15.30173367,.0001208,53.1614,88.3568,92.4352,267.6787,0,U,58943,999,2969,-.90676E-4,-.3041E-4,0
STARLINK-31336,2024-027P,2024-08-14T07:55:32.321280,15.30179078,.0001318,53.1612,88.4509,94.8700,265.2451,0,U,58944,999,2968,-.10197E-3,-.3376E-4,0
STARLINK-31359,2024-027Q,2024-08-14T07:59:13.333344,15.27978430,.0000899,53.1609,87.0265,98.9060,261.2041,0,U,58945,999,2972,.98775E-3,.27073E-3,0
STARLINK-31331,2024-027R,2024-08-14T07:25:09.490368,15.30148513,.000131,53.1568,88.3227,99.4237,260.6912,0,U,58946,999,2969,-.36276E-3,-.1107E-3,0
STARLINK-31116,2024-027S,2024-08-14T07:29:42.667296,15.30150263,.000114,53.1596,88.3386,89.8795,270.2336,0,U,58947,999,2969,-.31459E-3,-.965E-4,0
STARLINK-31311,2024-027T,2024-08-13T21:56:16.340928,15.30144736,.0001028,53.1574,90.1189,79.8264,280.2853,0,U,58948,999,2917,-.54856E-3,-.16542E-3,0
STARLINK-31294,2024-027U,2024-08-14T08:03:08.358624,15.30181874,.0001053,53.1610,88.4816,86.8742,273.2380,0,U,58949,999,2969,.50964E-3,.14757E-3,0
STARLINK-31330,2024-027W,2024-08-14T07:50:58.897248,15.30157644,.0001104,53.1602,88.4243,78.7882,281.3243,0,U,58951,999,2969,-.23623E-3,-.7339E-4,0
STARLINK-31293,2024-027X,2024-08-13T15:35:27.790944,15.30204116,.0001464,53.1582,91.3130,73.1862,286.9299,0,U,58952,999,2959,.11594E-5,-.325E-5,0
DRUMS TARGET-2,2021-102N,2024-08-14T09:35:46.368672,15.18813650,.0015844,97.4265,273.8422,49.9987,310.2635,0,U,58954,999,3466,.36312E-2,.76473E-3,0
HBTSS-SV2,2024-028A,2024-08-14T10:16:50.177856,13.70331216,.0012054,39.9896,249.7080,337.5098,22.5119,0,U,58955,999,2490,.35014E-3,.234E-5,0
RAPTOR4,2024-028B,2024-08-14T10:16:10.030368,13.70308645,.0010049,39.9896,249.7006,330.5559,29.4620,0,U,58956,999,2489,.16095E-3,.66E-6,0
RAPTOR1,2024-028C,2024-08-14T11:52:09.504480,13.70355279,.0010059,39.9888,249.3277,332.3418,27.6792,0,U,58957,999,2490,.14444E-3,.51E-6,0
RAPTOR3,2024-028D,2024-08-14T11:42:41.751072,13.70403029,.0009932,39.9894,249.2906,333.5890,26.4350,0,U,58958,999,2490,.14096E-3,.48E-6,0
RAPTOR2,2024-028E,2024-08-14T11:33:10.720512,13.70454871,.000997,39.9891,249.2519,335.0987,24.9277,0,U,58959,999,2490,.15234E-3,.58E-6,0
HBTSS-SV1,2024-028F,2024-08-14T08:25:58.068192,13.70311887,.0011842,39.9895,250.0175,346.3860,13.6566,0,U,58960,999,1155,.3314E-3,.217E-5,0
PROGRESS-MS 26,2024-029A,2024-08-13T20:16:10.754688,15.50070365,.0005394,51.6396,29.6975,199.4472,160.6312,0,U,58961,999,2770,.43306E-3,.24406E-3,0
STARLINK-31373,2024-031A,2024-08-14T07:35:00.051648,15.28237599,.0004849,53.1610,77.1951,226.0194,134.0407,0,U,58965,999,2887,.30801E-2,.86558E-3,0
STARLINK-31449,2024-031B,2024-08-14T13:50:55.903488,15.29205244,.0005765,53.1620,75.9812,58.2072,301.9489,0,U,58966,999,2891,.15218E-1,.465212E-2,0
STARLINK-31314,2024-031C,2024-08-14T04:19:57.795456,15.28320385,.0004381,53.1618,77.7735,47.0989,313.0378,0,U,58967,999,2885,.74135E-2,.212956E-2,0
STARLINK-31356,2024-031D,2024-08-14T00:10:32.883456,15.28020580,.0001003,53.1573,78.1277,263.8200,96.2685,0,U,58968,999,2883,.48912E-3,.13221E-3,0
STARLINK-31335,2024-031E,2024-08-13T23:30:46.297728,15.27991256,.0003496,53.1610,78.6525,74.1409,285.9976,0,U,58969,999,2882,-.44873E-4,-.1594E-4,0
STARLINK-31368,2024-031F,2024-08-14T13:37:28.861824,15.28829200,.0006128,53.1602,75.9243,62.0329,298.1291,0,U,58970,999,2891,.60032E-2,.174203E-2,0
STARLINK-31333,2024-031G,2024-08-14T07:14:47.181408,15.28361040,.0009211,53.1588,77.1080,236.9223,123.0893,0,U,58971,999,2887,.2497E-2,.70274E-3,0
STARLINK-31351,2024-031H,2024-08-14T13:30:37.510560,15.28924035,.0002944,53.1581,75.8940,62.6749,297.4550,0,U,58972,999,2895,.10027E-1,.296869E-2,0
STARLINK-31365,2024-031J,2024-08-14T13:24:03.240576,15.28687250,.0005636,53.1599,75.8648,55.9222,304.2313,0,U,58973,999,2891,.8117E-2,.236614E-2,0
STARLINK-31361,2024-031K,2024-08-14T07:08:05.284032,15.28397298,.0002078,53.1599,77.0776,195.7822,164.3113,0,U,58974,999,2887,.27477E-2,.77445E-3,0
STARLINK-31369,2024-031L,2024-08-14T07:01:20.687520,15.28340987,.0001322,53.1582,77.0471,149.1167,210.9911,0,U,58975,999,2885,.65214E-2,.186721E-2,0
STARLINK-31324,2024-031M,2024-08-14T07:00:49.822848,15.28226952,.0005102,53.1598,77.0448,237.1216,122.9293,0,U,58976,999,2885,.27447E-2,.76972E-3,0
STARLINK-31358,2024-031N,2024-08-14T07:30:18.395424,15.30184449,.0001193,53.1624,75.0327,122.0426,238.0691,0,U,58977,999,2888,-.51889E-4,-.1895E-4,0
STARLINK-31355,2024-031P,2024-08-14T13:10:21.560160,15.28899310,.0003365,53.1612,75.8041,57.2275,302.9049,0,U,58978,999,2889,.84279E-2,.247619E-2,0
STARLINK-31380,2024-031Q,2024-08-14T06:47:55.017024,15.28166786,.0004188,53.1615,76.9905,100.4083,259.7389,0,U,58979,999,2885,.17924E-2,.49862E-3,0
STARLINK-31353,2024-031R,2024-08-14T06:41:06.073728,15.28198974,.0004585,53.1579,76.9596,135.4440,224.6929,0,U,58980,999,2882,.16288E-2,.45297E-3,0
STARLINK-31339,2024-031S,2024-08-14T06:47:23.005824,15.28139112,.0002356,53.1606,76.9861,107.8677,252.2580,0,U,58981,999,2885,.76651E-3,.21018E-3,0
STARLINK-31360,2024-031T,2024-08-14T07:24:28.660320,15.32506994,.0001254,53.1612,76.4515,272.4473,87.6385,0,U,58982,999,2886,.91547E-2,.303089E-2,0
STARLINK-31384,2024-031U,2024-08-14T00:17:46.658112,15.27943849,.0000962,53.1572,78.1427,111.3949,248.7153,0,U,58983,999,2881,-.20219E-3,-.5933E-4,0
STARLINK-31379,2024-031V,2024-08-14T00:17:17.393568,15.27946667,.0001015,53.1579,78.1401,113.1596,246.9511,0,U,58984,999,2881,-.13552E-3,-.4093E-4,0
STARLINK-31385,2024-031W,2024-08-14T08:00:01.999872,15.34265403,.0001092,53.1602,73.5349,92.3242,359.1709,0,U,58985,999,582,-.25559E-2,-.85395E-3,0
STARLINK-31229,2024-031X,2024-08-14T00:11:01.583808,15.27974456,.0001846,53.1596,78.1103,90.6635,269.4576,0,U,58986,999,2881,-.69729E-3,-.19587E-3,0
CE-SAT-IE,2024-032A,2024-08-13T14:11:12.469056,14.66945120,.0003945,98.0973,281.9263,67.6632,292.4990,0,U,58987,999,2617,.41873E-3,.2296E-4,0
TIRSAT,2024-032C,2024-08-13T21:10:41.561472,14.68817811,.0006641,98.0935,282.5586,124.7525,235.4306,0,U,58989,999,2624,.11638E-2,.6752E-4,0
INSAT-3DS,2024-033A,2024-08-14T13:25:28.020576,1.00270118,.0001916,0.0457,268.9685,226.7882,111.1352,0,U,58990,999,4033,0,-.147E-5,0
ADRAS-J,2024-034A,2024-08-12T10:11:34.981152,14.94681446,.0042168,98.2174,201.0334,221.5375,138.2637,0,U,58992,999,2626,.11367E-2,.12498E-3,0
MERAH PUTIH 2,2024-035A,2024-08-14T15:18:42.507936,1.00270225,.0001711,0.0170,99.8598,49.4096,156.8944,0,U,58995,999,185,0,-.349E-5,0
AAC-AIS-SAT3,2023-174DJ,2024-08-13T20:33:31.532544,14.75499446,.0007056,97.7161,293.4751,11.4473,348.6896,0,U,58997,999,4163,.19446E-2,.13212E-3,0
STARLINK-31468,2024-036A,2024-08-14T08:20:18.244896,15.34218201,.0001508,53.1585,216.7125,85.6160,274.5015,0,U,58998,999,2770,.16457E-4,.177E-5,0
STARLINK-31440,2024-036B,2024-08-14T05:46:14.108448,15.34215663,.0001012,53.1591,217.4604,82.7242,277.3875,0,U,58999,999,2741,.70625E-4,.1998E-4,0
STARLINK-31529,2024-036C,2024-08-14T08:33:43.858368,15.34204706,.0001482,53.1583,216.7582,108.6688,251.4476,0,U,59000,999,2761,.3165E-3,.10266E-3,0
STARLINK-31431,2024-036E,2024-08-14T08:37:00.472800,15.30212131,.0001583,53.1593,216.7757,92.2495,267.8687,0,U,59002,999,2769,.29454E-3,.8377E-4,0
STARLINK-31429,2024-036F,2024-08-14T09:20:32.868384,15.34298263,.0001163,53.1579,216.2567,157.1388,202.9666,0,U,59003,999,2771,.20428E-2,.69056E-3,0
STARLINK-31435,2024-036G,2024-08-14T09:40:40.207296,15.34225683,.0001292,53.1581,216.3396,79.1261,280.9886,0,U,59004,999,2771,.93186E-4,.2757E-4,0
STARLINK-31484,2024-036H,2024-08-14T09:33:58.441248,15.34226287,.0001412,53.1564,216.3103,70.3192,289.7963,0,U,59005,999,2770,.63121E-3,.20893E-3,0
STARLINK-31450,2024-036J,2024-08-14T06:19:39.451584,15.34221949,.0001585,53.1575,216.8926,106.1262,253.9915,0,U,59006,999,2768,.13471E-3,.4153E-4,0
